CCSDS_OMM_VERS = 2.0
CREATION_DATE  = 
ORIGINATOR     = 

OBJECT_NAME    = SITRO-AIS-62
OBJECT_ID      = 2025-313BA
CENTER_NAME    = EARTH
REF_FRAME      = TEME
TIME_SYSTEM    = UTC
MEAN_ELEMENT_THEORY = SGP/SGP4

EPOCH          = 2026-01-26T14:42:05.514048
MEAN_MOTION    = 15.22011058
ECCENTRICITY   = .00102455
INCLINATION    = 97.4098
RA_OF_ASC_NODE = 103.6415
ARG_OF_PERICENTER = 130.3826
MEAN_ANOMALY   = 229.8306

EPHEMERIS_TYPE = 0
CLASSIFICATION_TYPE = U
NORAD_CAT_ID   = 67296
ELEMENT_SET_NO = 999
REV_AT_EPOCH   = 442
BSTAR          = .74434088E-3
MEAN_MOTION_DOT = .16979E-3
MEAN_MOTION_DDOT = 0

CCSDS_OMM_VERS = 2.0
CREATION_DATE  = 
ORIGINATOR     = 

OBJECT_NAME    = SITRO-AIS-61
OBJECT_ID      = 2025-313BB
CENTER_NAME    = EARTH
REF_FRAME      = TEME
TIME_SYSTEM    = UTC
MEAN_ELEMENT_THEORY = SGP/SGP4

EPOCH          = 2026-01-26T14:40:28.995744
MEAN_MOTION    = 15.22069963
ECCENTRICITY   = .00099405
INCLINATION    = 97.4101
RA_OF_ASC_NODE = 103.6432
ARG_OF_PERICENTER = 132.1787
MEAN_ANOMALY   = 228.0295

EPHEMERIS_TYPE = 0
CLASSIFICATION_TYPE = U
NORAD_CAT_ID   = 67297
ELEMENT_SET_NO = 999
REV_AT_EPOCH   = 442
BSTAR          = .73443128E-3
MEAN_MOTION_DOT = .1678E-3
MEAN_MOTION_DDOT = 0

CCSDS_OMM_VERS = 2.0
CREATION_DATE  = 
ORIGINATOR     = 

OBJECT_NAME    = TIANHUI 7
OBJECT_ID      = 2025-314A
CENTER_NAME    = EARTH
REF_FRAME      = TEME
TIME_SYSTEM    = UTC
MEAN_ELEMENT_THEORY = SGP/SGP4

EPOCH          = 2026-01-20T22:20:42.562752
MEAN_MOTION    = 15.25587940
ECCENTRICITY   = .00015619
INCLINATION    = 97.4187
RA_OF_ASC_NODE = 97.9671
ARG_OF_PERICENTER = 100.1824
MEAN_ANOMALY   = 259.9591

EPHEMERIS_TYPE = 0
CLASSIFICATION_TYPE = U
NORAD_CAT_ID   = 67300
ELEMENT_SET_NO = 999
REV_AT_EPOCH   = 333
BSTAR          = .19816833E-3
MEAN_MOTION_DOT = .496E-4
MEAN_MOTION_DDOT = 0

CCSDS_OMM_VERS = 2.0
CREATION_DATE  = 
ORIGINATOR     = 

OBJECT_NAME    = CZ-4B R/B
OBJECT_ID      = 2025-314B
CENTER_NAME    = EARTH
REF_FRAME      = TEME
TIME_SYSTEM    = UTC
MEAN_ELEMENT_THEORY = SGP/SGP4

EPOCH          = 2026-01-26T15:24:16.217568
MEAN_MOTION    = 15.72561730
ECCENTRICITY   = .01309185
INCLINATION    = 97.3710
RA_OF_ASC_NODE = 105.2974
ARG_OF_PERICENTER = 274.8495
MEAN_ANOMALY   = 83.7831

EPHEMERIS_TYPE = 0
CLASSIFICATION_TYPE = U
NORAD_CAT_ID   = 67301
ELEMENT_SET_NO = 999
REV_AT_EPOCH   = 427
BSTAR          = .64517726E-3
MEAN_MOTION_DOT = .146196E-2
MEAN_MOTION_DDOT = .8571357E-5

CCSDS_OMM_VERS = 2.0
CREATION_DATE  = 
ORIGINATOR     = 

OBJECT_NAME    = SHIJIAN-29A (SJ-29A)
OBJECT_ID      = 2025-315A
CENTER_NAME    = EARTH
REF_FRAME      = TEME
TIME_SYSTEM    = UTC
MEAN_ELEMENT_THEORY = SGP/SGP4

EPOCH          = 2026-01-26T15:45:26.162784
MEAN_MOTION    = 1.00270822
ECCENTRICITY   = .0001373
INCLINATION    = 3.0383
RA_OF_ASC_NODE = 98.8573
ARG_OF_PERICENTER = 294.2751
MEAN_ANOMALY   = 42.1806

EPHEMERIS_TYPE = 0
CLASSIFICATION_TYPE = U
NORAD_CAT_ID   = 67302
ELEMENT_SET_NO = 999
REV_AT_EPOCH   = 19
BSTAR          = 0
MEAN_MOTION_DOT = -.56E-6
MEAN_MOTION_DDOT = 0

CCSDS_OMM_VERS = 2.0
CREATION_DATE  = 
ORIGINATOR     = 

OBJECT_NAME    = CZ-7A R/B
OBJECT_ID      = 2025-315B
CENTER_NAME    = EARTH
REF_FRAME      = TEME
TIME_SYSTEM    = UTC
MEAN_ELEMENT_THEORY = SGP/SGP4

EPOCH          = 2026-01-26T10:40:26.006016
MEAN_MOTION    = 2.45642661
ECCENTRICITY   = .71762142
INCLINATION    = 19.6043
RA_OF_ASC_NODE = 89.3120
ARG_OF_PERICENTER = 199.5366
MEAN_ANOMALY   = 104.4588

EPHEMERIS_TYPE = 0
CLASSIFICATION_TYPE = U
NORAD_CAT_ID   = 67303
ELEMENT_SET_NO = 999
REV_AT_EPOCH   = 65
BSTAR          = .16580273E-2
MEAN_MOTION_DOT = .50718E-3
MEAN_MOTION_DDOT = .141899E-6

CCSDS_OMM_VERS = 2.0
CREATION_DATE  = 
ORIGINATOR     = 

OBJECT_NAME    = CSG-3
OBJECT_ID      = 2026-001A
CENTER_NAME    = EARTH
REF_FRAME      = TEME
TIME_SYSTEM    = UTC
MEAN_ELEMENT_THEORY = SGP/SGP4

EPOCH          = 2026-01-26T15:08:02.624352
MEAN_MOTION    = 14.82510535
ECCENTRICITY   = .00016138
INCLINATION    = 97.8453
RA_OF_ASC_NODE = 212.3010
ARG_OF_PERICENTER = 83.0054
MEAN_ANOMALY   = 277.1343

EPHEMERIS_TYPE = 0
CLASSIFICATION_TYPE = U
NORAD_CAT_ID   = 67304
ELEMENT_SET_NO = 999
REV_AT_EPOCH   = 349
BSTAR          = .10440683E-3
MEAN_MOTION_DOT = .786E-5
MEAN_MOTION_DDOT = 0

CCSDS_OMM_VERS = 2.0
CREATION_DATE  = 
ORIGINATOR     = 

OBJECT_NAME    = STARLINK-36490
OBJECT_ID      = 2026-002A
CENTER_NAME    = EARTH
REF_FRAME      = TEME
TIME_SYSTEM    = UTC
MEAN_ELEMENT_THEORY = SGP/SGP4

EPOCH          = 2026-01-26T14:00:01.000224
MEAN_MOTION    = 15.62167303
ECCENTRICITY   = .00015931
INCLINATION    = 42.9989
RA_OF_ASC_NODE = 205.4620
ARG_OF_PERICENTER = 263.0798
MEAN_ANOMALY   = 27.2916

EPHEMERIS_TYPE = 0
CLASSIFICATION_TYPE = U
NORAD_CAT_ID   = 67305
ELEMENT_SET_NO = 999
REV_AT_EPOCH   = 470
BSTAR          = -.26228004E-1
MEAN_MOTION_DOT = -.2071204E-1
MEAN_MOTION_DDOT = 0

CCSDS_OMM_VERS = 2.0
CREATION_DATE  = 
ORIGINATOR     = 

OBJECT_NAME    = STARLINK-36488
OBJECT_ID      = 2026-002B
CENTER_NAME    = EARTH
REF_FRAME      = TEME
TIME_SYSTEM    = UTC
MEAN_ELEMENT_THEORY = SGP/SGP4

EPOCH          = 2026-01-26T14:00:01.000224
MEAN_MOTION    = 15.62165194
ECCENTRICITY   = .0001709
INCLINATION    = 42.9989
RA_OF_ASC_NODE = 205.4579
ARG_OF_PERICENTER = 261.1993
MEAN_ANOMALY   = 31.0902

EPHEMERIS_TYPE = 0
CLASSIFICATION_TYPE = U
NORAD_CAT_ID   = 67306
ELEMENT_SET_NO = 999
REV_AT_EPOCH   = 465
BSTAR          = -.26200161E-1
MEAN_MOTION_DOT = -.2069234E-1
MEAN_MOTION_DDOT = 0

CCSDS_OMM_VERS = 2.0
CREATION_DATE  = 
ORIGINATOR     = 

OBJECT_NAME    = STARLINK-36481
OBJECT_ID      = 2026-002C
CENTER_NAME    = EARTH
REF_FRAME      = TEME
TIME_SYSTEM    = UTC
MEAN_ELEMENT_THEORY = SGP/SGP4

EPOCH          = 2026-01-26T14:00:01.000224
MEAN_MOTION    = 15.62162278
ECCENTRICITY   = .00016624
INCLINATION    = 42.9991
RA_OF_ASC_NODE = 205.4480
ARG_OF_PERICENTER = 264.7949
MEAN_ANOMALY   = 31.3313

EPHEMERIS_TYPE = 0
CLASSIFICATION_TYPE = U
NORAD_CAT_ID   = 67307
ELEMENT_SET_NO = 999
REV_AT_EPOCH   = 465
BSTAR          = -.26164248E-1
MEAN_MOTION_DOT = -.2066516E-1
MEAN_MOTION_DDOT = 0

CCSDS_OMM_VERS = 2.0
CREATION_DATE  = 
ORIGINATOR     = 

OBJECT_NAME    = STARLINK-36449
OBJECT_ID      = 2026-002D
CENTER_NAME    = EARTH
REF_FRAME      = TEME
TIME_SYSTEM    = UTC
MEAN_ELEMENT_THEORY = SGP/SGP4

EPOCH          = 2026-01-26T14:00:01.000224
MEAN_MOTION    = 15.62162503
ECCENTRICITY   = .00016555
INCLINATION    = 42.9991
RA_OF_ASC_NODE = 205.4429
ARG_OF_PERICENTER = 264.5899
MEAN_ANOMALY   = 33.4529

EPHEMERIS_TYPE = 0
CLASSIFICATION_TYPE = U
NORAD_CAT_ID   = 67308
ELEMENT_SET_NO = 999
REV_AT_EPOCH   = 470
BSTAR          = -.26161434E-1
MEAN_MOTION_DOT = -.2066332E-1
MEAN_MOTION_DDOT = 0

CCSDS_OMM_VERS = 2.0
CREATION_DATE  = 
ORIGINATOR     = 

OBJECT_NAME    = STARLINK-36482
OBJECT_ID      = 2026-002E
CENTER_NAME    = EARTH
REF_FRAME      = TEME
TIME_SYSTEM    = UTC
MEAN_ELEMENT_THEORY = SGP/SGP4

EPOCH          = 2026-01-26T14:00:01.000224
MEAN_MOTION    = 15.62168016
ECCENTRICITY   = .00014852
INCLINATION    = 42.9986
RA_OF_ASC_NODE = 205.4199
ARG_OF_PERICENTER = 267.9672
MEAN_ANOMALY   = 39.6554

EPHEMERIS_TYPE = 0
CLASSIFICATION_TYPE = U
NORAD_CAT_ID   = 67309
ELEMENT_SET_NO = 999
REV_AT_EPOCH   = 465
BSTAR          = -.26208224E-1
MEAN_MOTION_DOT = -.2069806E-1
MEAN_MOTION_DDOT = 0

