SITRO-AIS-62            
1 67296U 25313BA  26026.61256382  .00016979  00000+0  74434-3 0  9999
2 67296  97.4098 103.6415 0010245 130.3826 229.8306 15.22011058  4429
SITRO-AIS-61            
1 67297U 25313BB  26026.61144671  .00016780  00000+0  73443-3 0  9996
2 67297  97.4101 103.6432 0009940 132.1787 228.0295 15.22069963  4426
TIANHUI 7               
1 67300U 25314A   26020.93104818  .00004960  00000+0  19817-3 0  9992
2 67300  97.4187  97.9671 0001561 100.1824 259.9591 15.25587940  3337
CZ-4B R/B               
1 67301U 25314B   26026.64185437  .00146196  85714-5  64518-3 0  9990
2 67301  97.3710 105.2974 0130918 274.8495  83.7831 15.72561730  4275
SHIJIAN-29A (SJ-29A)    
1 67302U 25315A   26026.65655281 -.00000056  00000+0  00000+0 0  9998
2 67302   3.0383  98.8573 0001373 294.2751  42.1806  1.00270822   194
CZ-7A R/B               
1 67303U 25315B   26026.44474544  .00050718  14190-6  16580-2 0  9991
2 67303  19.6043  89.3120 7176214 199.5366 104.4588  2.45642661   651
CSG-3                   
1 67304U 26001A   26026.63058593  .00000786  00000+0  10441-3 0  9997
2 67304  97.8453 212.3010 0001613  83.0054 277.1343 14.82510535  3495
STARLINK-36490          
1 67305U 26002A   26026.58334491 -.02071204  00000+0 -26228-1 0  9992
2 67305  42.9989 205.4620 0001593 263.0798  27.2916 15.62167303  4708
STARLINK-36488          
1 67306U 26002B   26026.58334491 -.02069234  00000+0 -26200-1 0  9993
2 67306  42.9989 205.4579 0001709 261.1993  31.0902 15.62165194  4655
STARLINK-36481          
1 67307U 26002C   26026.58334491 -.02066516  00000+0 -26164-1 0  9993
2 67307  42.9991 205.4480 0001662 264.7949  31.3313 15.62162278  4657
STARLINK-36449          
1 67308U 26002D   26026.58334491 -.02066332  00000+0 -26161-1 0  9997
2 67308  42.9991 205.4429 0001655 264.5899  33.4529 15.62162503  4704
STARLINK-36482          
1 67309U 26002E   26026.58334491 -.02069806  00000+0 -26208-1 0  9999
2 67309  42.9986 205.4199 0001485 267.9672  39.6554 15.62168016  4655
